[{"OBJECT_NAME":"ONEWEB-0415","OBJECT_ID":"2022-012C","EPOCH":"2026-03-09T23:22:33.866112","MEAN_MOTION":13.10370249,"ECCENTRICITY":0.00021334,"INCLINATION":87.8769,"RA_OF_ASC_NODE":56.0185,"ARG_OF_PERICENTER":86.5099,"MEAN_ANOMALY":273.6272,"EPHEMERIS_TYPE":0,"CLASSIFICATION_TYPE":"U","NORAD_CAT_ID":51624,"ELEMENT_SET_NO":999,"REV_AT_EPOCH":19629,"BSTAR":-0.00090798506,"MEAN_MOTION_DOT":-3.04e-6,"MEAN_MOTION_DDOT":0},{"OBJECT_NAME":"COSMOS 839 DEB","OBJECT_ID":"1976-067H","EPOCH":"2026-03-09T23:14:36.004128","MEAN_MOTION":12.18425732,"ECCENTRICITY":0.06203882,"INCLINATION":65.8793,"RA_OF_ASC_NODE":38.0171,"ARG_OF_PERICENTER":99.0251,"MEAN_ANOMALY":333.6716,"EPHEMERIS_TYPE":0,"CLASSIFICATION_TYPE":"U","NORAD_CAT_ID":10414,"ELEMENT_SET_NO":999,"REV_AT_EPOCH":21021,"BSTAR":-4.6158862e-5,"MEAN_MOTION_DOT":-6.0e-7,"MEAN_MOTION_DDOT":0}]
